*******************************************************************************
Ephemeris / WWW_USER Tue Mar 27 22:04:35 2018 Pasadena, USA      / Horizons    
*******************************************************************************
Target body name: Venus (299)                     {source: DE431mx}
Center body name: Solar System Barycenter (0)     {source: DE431mx}
Center-site name: BODY CENTER
*******************************************************************************
Start time      : A.D. 2018-Feb-08 00:00:00.0000 TDB
Stop  time      : A.D. 2023-Feb-08 00:00:00.0000 TDB
Step-size       : 7200 minutes
*******************************************************************************
Center geodetic : 0.00000000,0.00000000,0.0000000 {E-lon(deg),Lat(deg),Alt(km)}
Center cylindric: 0.00000000,0.00000000,0.0000000 {E-lon(deg),Dxy(km),Dz(km)}
Center radii    : (undefined)                                                  
Output units    : AU-D                                                         
Output type     : GEOMETRIC cartesian states
Output format   : 2 (position and velocity)
Reference frame : ICRF/J2000.0                                                 
Coordinate systm: Ecliptic and Mean Equinox of Reference Epoch                 
*******************************************************************************
JDTDB
   X     Y     Z
   VX    VY    VZ
*******************************************************************************
$$SOE
2459417.500000000 = A.D. 2021-Jul-22 00:00:00.0000 TDB 
  -7.018616780208145E-01 -1.876946443029476E-01  3.755257843331754E-02
   5.263996412823967E-03 -1.959083267862452E-02 -5.726407817495725E-04
2459422.500000000 = A.D. 2021-Jul-27 00:00:00.0000 TDB 
  -6.687997820255714E-01 -2.834350703811364E-01  3.433071773343997E-02
   7.937849312513085E-03 -1.864288324133254E-02 -7.139241723298397E-04
2459427.500000000 = A.D. 2021-Aug-01 00:00:00.0000 TDB 
  -6.227550825188781E-01 -3.735180749052244E-01  3.043733536755459E-02
   1.044869101381903E-02 -1.733192709580453E-02 -8.408189352903636E-04
2459432.500000000 = A.D. 2021-Aug-06 00:00:00.0000 TDB 
  -5.646656209429761E-01 -4.561952568689759E-01  2.595055696094983E-02
   1.274804067823339E-02 -1.568573082035414E-02 -9.509085223674528E-04
2459437.500000000 = A.D. 2021-Aug-11 00:00:00.0000 TDB 
  -4.957004260024970E-01 -5.298731290463785E-01  2.095971135964045E-02
   1.479212303645574E-02 -1.373836543981921E-02 -1.042134447871447E-03
2459442.500000000 = A.D. 2021-Aug-16 00:00:00.0000 TDB 
  -4.172340199337179E-01 -5.931426435643828E-01  1.556345427122784E-02
   1.654263130577678E-02 -1.152939305910387E-02 -1.112829153030292E-03
2459447.500000000 = A.D. 2021-Aug-21 00:00:00.0000 TDB 
  -3.308174659062058E-01 -6.448044523709742E-01  9.867750831252341E-03
   1.796734716323281E-02 -9.102978592424217E-03 -1.161739594092204E-03
2459452.500000000 = A.D. 2021-Aug-26 00:00:00.0000 TDB 
  -2.381466769003877E-01 -6.838895926738258E-01  3.983762913536694E-03
   1.904061633978245E-02 -6.506952099640554E-03 -1.188041821601828E-03
2459457.500000000 = A.D. 2021-Aug-31 00:00:00.0000 TDB 
  -1.410287021761421E-01 -7.096754093411086E-01 -1.974314910636074E-03
   1.974368279478376E-02 -3.791844850252186E-03 -1.191347037058266E-03
2459462.500000000 = A.D. 2021-Sep-05 00:00:00.0000 TDB 
  -4.134668384411388E-02 -7.216966344910873E-01 -7.891429686983545E-03
   2.006488777056562E-02 -1.009919211899500E-03 -1.171699759511603E-03
2459467.500000000 = A.D. 2021-Sep-10 00:00:00.0000 TDB 
   5.897586149639027E-02 -7.197516367312393E-01 -1.365381697152188E-02
   1.999974226153186E-02  1.785790865884802E-03 -1.129568812508480E-03
2459472.500000000 = A.D. 2021-Sep-15 00:00:00.0000 TDB 
   1.580108270836648E-01 -7.039039278965026E-01 -1.915108626105883E-02
   1.955088259219378E-02  4.542415382884145E-03 -1.065831879814972E-03
2459477.500000000 = A.D. 2021-Sep-20 00:00:00.0000 TDB 
   2.538608068419304E-01 -6.744790738567807E-01 -2.427821474927076E-02
   1.872791911461527E-02  7.208149685960290E-03 -9.817544100064787E-04
2459482.500000000 = A.D. 2021-Sep-25 00:00:00.0000 TDB 
   3.446933830958194E-01 -6.320571997736831E-01 -2.893742298925798E-02
   1.754718784798156E-02  9.733114196021424E-03 -8.789635734774818E-04
2459487.500000000 = A.D. 2021-Sep-30 00:00:00.0000 TDB 
   4.287739486587313E-01 -5.774613134128398E-01 -3.303990899912497E-02
   1.603141393445858E-02  1.207016659975342E-02 -7.594177482306027E-04
2459492.500000000 = A.D. 2021-Oct-05 00:00:00.0000 TDB 
   5.044966410821143E-01 -5.117416957831958E-01 -3.650741947710354E-02
   1.420929411524243E-02  1.417566211724861E-02 -6.253719554454839E-04
2459497.500000000 = A.D. 2021-Oct-10 00:00:00.0000 TDB 
   5.704129991828462E-01 -4.361566271758288E-01 -3.927363904708973E-02
   1.211500404236563E-02  1.601015855951244E-02 -4.793397074404914E-04
2459502.500000000 = A.D. 2021-Oct-15 00:00:00.0000 TDB 
   6.252579782423189E-01 -3.521497326392466E-01 -4.128538054042996E-02
   9.787635123585950E-03  1.753906290932264E-02 -3.240516215141892E-04
2459507.500000000 = A.D. 2021-Oct-20 00:00:00.0000 TDB 
   6.679729809972940E-01 -2.613242487175961E-01 -4.250356078745882E-02
   7.270564522038935E-03  1.873321551105081E-02 -1.624110472702282E-04
2459512.500000000 = A.D. 2021-Oct-25 00:00:00.0000 TDB 
   6.977255776302718E-01 -1.654145351561204E-01 -4.290394754002197E-02
   4.610761206415890E-03  1.956940698225031E-02  2.553070852611629E-06
2459517.500000000 = A.D. 2021-Oct-30 00:00:00.0000 TDB 
   7.139256017699364E-01 -6.625518275801393E-02 -4.247766428523037E-02
   1.858030777687230E-03  2.003082169998411E-02  1.677358566764908E-04
2459522.500000000 = A.D. 2021-Nov-04 00:00:00.0000 TDB 
   7.162373240332346E-01  3.425189712672438E-02 -4.123144101593365E-02
  -9.357977341142007E-04  2.010740027384109E-02  3.300084024230336E-04
2459527.500000000 = A.D. 2021-Nov-09 00:00:00.0000 TDB 
   7.045874231850739E-01  1.341719744182940E-01 -3.918760066467030E-02
  -3.717738766105597E-03  1.979611197914621E-02  4.862715317246366E-04
2459532.500000000 = A.D. 2021-Nov-14 00:00:00.0000 TDB 
   6.791685009213012E-01  2.315731180466224E-01 -3.638377306846392E-02
  -6.434564668896982E-03  1.910112690233147E-02  6.335109298385707E-04
2459537.500000000 = A.D. 2021-Nov-19 00:00:00.0000 TDB 
   6.404379228256281E-01  3.245624007800283E-01 -3.287233117827444E-02
  -9.033759128176718E-03  1.803387675414751E-02  7.688529937200796E-04
2459542.500000000 = A.D. 2021-Nov-24 00:00:00.0000 TDB 
   5.891118181671717E-01  4.113221063615833E-01 -2.871954789125248E-02
  -1.146449801011826E-02  1.661299313705013E-02  8.896205806566329E-04
2459547.500000000 = A.D. 2021-Nov-29 00:00:00.0000 TDB 
   5.261541372534499E-01  4.901452993537187E-01 -2.400447645128459E-02
  -1.367864271475394E-02  1.486411270502614E-02  9.933876491152482E-04
2459552.500000000 = A.D. 2021-Dec-04 00:00:00.0000 TDB 
   4.527607484449583E-01  5.594700689338696E-01 -1.881756285337362E-02
  -1.563172759030402E-02  1.281954028890444E-02  1.078031604148841E-03
2459557.500000000 = A.D. 2021-Dec-09 00:00:00.0000 TDB 
   3.703386578359744E-01  6.179117195840601E-01 -1.325900503820367E-02
  -1.728391954013862E-02  1.051776377965865E-02  1.141781999894035E-03
2459562.500000000 = A.D. 2021-Dec-14 00:00:00.0000 TDB 
   2.804805516710066E-01  6.642921596964472E-01 -7.436880717903167E-03
  -1.860092496548617E-02  8.002818390813751E-03  1.183264133428318E-03
2459567.500000000 = A.D. 2021-Dec-19 00:00:00.0000 TDB 
   1.849349917699813E-01  6.976657389810822E-01 -1.465073172556746E-03
  -1.955481697874523E-02  5.323502785117020E-03  1.201536008443511E-03
2459572.500000000 = A.D. 2021-Dec-24 00:00:00.0000 TDB 
   8.557273279781771E-02  7.173408119735553E-01  4.538968063909340E-03
  -2.012475474455154E-02  2.532455266490526E-03  1.196117173896037E-03
2459577.500000000 = A.D. 2021-Dec-29 00:00:00.0000 TDB 
  -1.565022935051638E-02  7.228963615215995E-01  1.045658750062657E-02
  -2.029756718294071E-02 -3.148954576956340E-04  1.167008064721210E-03
2459582.500000000 = A.D. 2022-Jan-03 00:00:00.0000 TDB 
  -1.167321343607599E-01  7.141931050672060E-01  1.617035446299474E-02
  -2.006817532113606E-02 -3.161483855169961E-03  1.114698677118568E-03
2459587.500000000 = A.D. 2022-Jan-08 00:00:00.0000 TDB 
  -2.156665959150344E-01  6.913786283524349E-01  2.156650860692863E-02
  -1.943983131086906E-02 -5.949837906686180E-03  1.040165657275974E-03
2459592.500000000 = A.D. 2022-Jan-13 00:00:00.0000 TDB 
  -3.104844405552405E-01  6.548862440255493E-01  2.653736049129213E-02
  -1.842415727798810E-02 -8.623352840053560E-03  9.448571555340073E-04
2459597.500000000 = A.D. 2022-Jan-18 00:00:00.0000 TDB 
  -3.992952171641404E-01  6.054274505204761E-01  3.098358524545485E-02
  -1.704097360430364E-02 -1.112757083437991E-02  8.306652237752288E-04
2459602.500000000 = A.D. 2022-Jan-23 00:00:00.0000 TDB 
  -4.803273147291940E-01  5.439780590953809E-01  3.481634788534333E-02
  -1.531791434536843E-02 -1.341142746047754E-02  6.998862181050890E-04
2459607.500000000 = A.D. 2022-Jan-28 00:00:00.0000 TDB 
  -5.519656379197252E-01  4.717582540993084E-01  3.795920294123783E-02
  -1.328983690203313E-02 -1.542842542880565E-02  5.551703562094402E-04
2459612.500000000 = A.D. 2022-Feb-02 00:00:00.0000 TDB 
  -6.127858479950928E-01  3.902070458124512E-01  4.034971801606555E-02
  -1.099804176955003E-02 -1.713769780020750E-02  3.994620270962096E-04
2459617.500000000 = A.D. 2022-Feb-07 00:00:00.0000 TDB 
  -6.615842756837560E-01  3.009517545077703E-01  4.194077962385501E-02
  -8.489326267181177E-03 -1.850492709231098E-02  2.359327099449253E-04
2459622.500000000 = A.D. 2022-Feb-12 00:00:00.0000 TDB 
  -6.974027516013844E-01  2.057733203036825E-01  4.270154916210785E-02
  -5.814903387588521E-03 -1.950309155706471E-02  6.790845250409763E-05
